SENTINEL-3A             
1 41335U 16011A   26195.91785759  .00000042  00000+0  35579-4 0  9997
2 41335  98.6238 262.9014 0001363  89.9821 270.1516 14.26739702542013
SENTINEL-3B             
1 43437U 18039A   26195.82086807  .00000033  00000+0  31777-4 0  9998
2 43437  98.6236 262.9549 0001135 119.3796 240.7498 14.26736193428066
